NORAD_CAT_ID,OBJECT_NAME,OBJECT_TYPE,EPOCH,MEAN_MOTION,ECCENTRICITY,INCLINATION,RA_OF_ASC_NODE,ARG_OF_PERICENTER,MEAN_ANOMALY,BSTAR,MEAN_MOTION_DOT,MEAN_MOTION_DDOT,TLE_LINE0,TLE_LINE1,TLE_LINE2,SEMIMAJOR_AXIS,PERIOD,APOGEE,PERIGEE,DECAYED
55749.0,STARLINK-5560,PAYLOAD,2023-06-24 12:29:42,14.98328838,0.0003671,69.9988,218.4461,269.089,90.9849,-9.1255e-06,-2.02e-06,0.0,0 STARLINK-5560,1 55749U 23028J   23175.52063190 -.00000202  00000-0 -91255-5 0  9992,2 55749  69.9988 218.4461 0003671 269.0890  90.9849 14.98328838 17874,6950.196,96.107,574.613,569.51,0.0
55749.0,STARLINK-5560,PAYLOAD,2023-06-25 12:31:43,14.9833308,0.0003687,69.9985,215.921,268.0006,92.073,4.5756e-05,4.53e-06,0.0,0 STARLINK-5560,1 55749U 23028J   23176.52202721  .00000453  00000-0  45756-4 0  9998,2 55749  69.9985 215.9210 0003687 268.0006  92.0730 14.98333080 18025,6950.183,96.107,574.611,569.486,0.0
55749.0,STARLINK-5560,PAYLOAD,2023-06-26 09:21:28,14.98324347,0.0003758,69.9984,213.7329,269.9807,90.0921,0.00011897,1.327e-05,0.0,0 STARLINK-5560,1 55749U 23028J   23177.38991044  .00001327  00000-0  11897-3 0  9995,2 55749  69.9984 213.7329 0003758 269.9807  90.0921 14.98324347 18159,6950.21,96.107,574.687,569.463,0.0
55749.0,STARLINK-5560,PAYLOAD,2023-06-27 10:59:37,14.98333047,0.0003738,69.9984,211.0399,268.4911,91.5819,2.3357e-06,-6.5e-07,0.0,0 STARLINK-5560,1 55749U 23028J   23178.45806768 -.00000065  00000-0  23357-5 0  9997,2 55749  69.9984 211.0399 0003738 268.4911  91.5819 14.98333047 18312,6950.183,96.107,574.646,569.45,0.0
55749.0,STARLINK-5560,PAYLOAD,2023-06-28 11:01:38,14.98329605,0.0003719,69.9986,208.515,269.329,90.7443,1.826e-05,1.25e-06,0.0,0 STARLINK-5560,1 55749U 23028J   23179.45946873  .00000125  00000-0  18260-4 0  9992,2 55749  69.9986 208.5150 0003719 269.3290  90.7443 14.98329605 18464,6950.194,96.107,574.644,569.474,0.0
55749.0,STARLINK-5560,PAYLOAD,2023-06-29 11:03:39,14.98328884,0.0003727,69.9985,205.99,268.7549,91.3183,-7.538e-06,-1.83e-06,0.0,0 STARLINK-5560,1 55749U 23028J   23180.46086983 -.00000183  00000-0 -75380-5 0  9995,2 55749  69.9985 205.9900 0003727 268.7549  91.3183 14.98328884 18619,6950.196,96.107,574.652,569.471,0.0
55749.0,STARLINK-5560,PAYLOAD,2023-06-30 11:05:39,14.9833097,0.0003771,69.9984,203.4652,268.8547,91.218,1.9702e-05,1.42e-06,0.0,0 STARLINK-5560,1 55749U 23028J   23181.46226728  .00000142  00000-0  19702-4 0  9997,2 55749  69.9984 203.4652 0003771 268.8547  91.2180 14.98330970 18764,6950.19,96.107,574.676,569.434,0.0
55749.0,STARLINK-5560,PAYLOAD,2023-07-01 11:07:41,14.98328444,0.0003814,69.9984,200.9402,269.0256,91.0466,1.015e-05,2.8e-07,0.0,0 STARLINK-5560,1 55749U 23028J   23182.46366906  .00000028  00000-0  10150-4 0  9992,2 55749  69.9984 200.9402 0003814 269.0256  91.0466 14.98328444 18912,6950.198,96.107,574.714,569.412,0.0
55749.0,STARLINK-5560,PAYLOAD,2023-07-02 11:09:41,14.98331963,0.0003841,69.9984,198.4153,269.021,91.0509,1.1967e-05,5e-07,0.0,0 STARLINK-5560,1 55749U 23028J   23183.46506612  .00000050  00000-0  11967-4 0  9995,2 55749  69.9984 198.4153 0003841 269.0210  91.0509 14.98331963 19061,6950.187,96.107,574.721,569.382,0.0
55749.0,STARLINK-5560,PAYLOAD,2023-07-03 11:11:42,14.98333499,0.0003842,69.9984,195.8904,268.94,91.1319,5.4923e-05,5.62e-06,0.0,0 STARLINK-5560,1 55749U 23028J   23184.46646197  .00000562  00000-0  54923-4 0  9996,2 55749  69.9984 195.8904 0003842 268.9400  91.1319 14.98333499 19219,6950.182,96.107,574.717,569.377,0.0
55749.0,STARLINK-5560,PAYLOAD,2023-07-04 09:37:35,14.98329373,0.00038,69.9985,193.534,268.1605,91.9119,-1.8312e-05,-3.12e-06,0.0,0 STARLINK-5560,1 55749U 23028J   23185.40110557 -.00000312  00000-0 -18312-4 0  9994,2 55749  69.9985 193.5340 0003800 268.1605  91.9119 14.98329373 19359,6950.195,96.107,574.701,569.419,0.0
55749.0,STARLINK-5560,PAYLOAD,2023-07-05 09:39:36,14.9833012,0.0003785,69.9986,191.0091,268.1858,91.8868,-3.4359e-05,-5.03e-06,0.0,0 STARLINK-5560,1 55749U 23028J   23186.40250521 -.00000503  00000-0 -34359-4 0  9992,2 55749  69.9986 191.0091 0003785 268.1858  91.8868 14.98330120 19507,6950.193,96.107,574.688,569.427,0.0
55749.0,STARLINK-5560,PAYLOAD,2023-07-06 09:41:37,14.98329839,0.0003818,69.9984,188.4842,267.7937,92.2784,3.3832e-05,3.11e-06,0.0,0 STARLINK-5560,1 55749U 23028J   23187.40390348  .00000311  00000-0  33832-4 0  9995,2 55749  69.9984 188.4842 0003818 267.7937  92.2784 14.98329839 19652,6950.193,96.107,574.712,569.405,0.0
55749.0,STARLINK-5560,PAYLOAD,2023-07-07 09:43:38,14.98329942,0.0003764,69.9984,185.9593,267.2676,92.8053,2.9278e-05,2.56e-06,0.0,0 STARLINK-5560,1 55749U 23028J   23188.40530370  .00000256  00000-0  29278-4 0  9994,2 55749  69.9984 185.9593 0003764 267.2676  92.8053 14.98329942 19809,6950.193,96.107,574.674,569.442,0.0
55749.0,STARLINK-5560,PAYLOAD,2023-07-08 09:45:39,14.98331192,0.0003821,69.9984,183.4345,268.2477,91.8244,9.915e-06,2.5e-07,0.0,0 STARLINK-5560,1 55749U 23028J   23189.40670299  .00000025  00000-0  99150-5 0  9991,2 55749  69.9984 183.4345 0003821 268.2477  91.8244 14.98331192 19958,6950.189,96.107,574.71,569.399,0.0
55749.0,STARLINK-5560,PAYLOAD,2023-07-09 09:47:39,14.9833352,0.0003802,69.9984,180.9097,268.18,91.8924,4.4869e-05,4.42e-06,0.0,0 STARLINK-5560,1 55749U 23028J   23190.40809892  .00000442  00000-0  44869-4 0  9995,2 55749  69.9984 180.9097 0003802 268.1800  91.8924 14.98333520 20103,6950.182,96.107,574.689,569.405,0.0
55749.0,STARLINK-5560,PAYLOAD,2023-07-10 03:25:08,14.98328429,0.0003741,69.9986,179.0582,268.5114,91.5617,-1.6215e-05,-2.87e-06,0.0,0 STARLINK-5560,1 55749U 23028J   23191.14246343 -.00000287  00000-0 -16215-4 0  9996,2 55749  69.9986 179.0582 0003741 268.5114  91.5617 14.98328429 20217,6950.198,96.107,574.663,569.463,0.0
55749.0,STARLINK-5560,PAYLOAD,2023-07-11 08:15:33,14.98331224,0.0003721,69.9988,176.0285,267.6019,92.4714,-1.4953e-05,-2.72e-06,0.0,0 STARLINK-5560,1 55749U 23028J   23192.34414130 -.00000272  00000-0 -14953-4 0  9991,2 55749  69.9988 176.0285 0003721 267.6019  92.4714 14.98331224 20392,6950.189,96.107,574.64,569.468,0.0
55749.0,STARLINK-5560,PAYLOAD,2023-07-12 08:17:34,14.98332922,0.0003748,69.9988,173.5035,267.7386,92.3344,6.4858e-05,6.81e-06,0.0,0 STARLINK-5560,1 55749U 23028J   23193.34553698  .00000681  00000-0  64858-4 0  9996,2 55749  69.9988 173.5035 0003748 267.7386  92.3344 14.98332922 20545,6950.184,96.107,574.654,569.444,0.0
55749.0,STARLINK-5560,PAYLOAD,2023-07-13 16:20:16,14.98327928,0.0003678,69.9989,170.137,268.0525,92.0213,-2.3796e-05,-3.77e-06,0.0,0 STARLINK-5560,1 55749U 23028J   23194.68074267 -.00000377  00000-0 -23796-4 0  9994,2 55749  69.9989 170.1370 0003678 268.0525  92.0213 14.98327928 20746,6950.199,96.107,574.621,569.508,0.0
55749.0,STARLINK-5560,PAYLOAD,2023-07-15 01:59:05,14.98331567,0.0003682,69.9989,166.6024,268.4986,91.5752,6.9639e-05,7.38e-06,0.0,0 STARLINK-5560,1 55749U 23028J   23196.08269704  .00000738  00000-0  69639-4 0  9997,2 55749  69.9989 166.6024 0003682 268.4986  91.5752 14.98331567 20951,6950.188,96.107,574.612,569.494,0.0
55749.0,STARLINK-5560,PAYLOAD,2023-07-16 02:01:06,14.9832565,0.0003523,69.9994,164.0777,269.137,90.9385,-4.1008e-05,-5.82e-06,0.0,0 STARLINK-5560,1 55749U 23028J   23197.08410339 -.00000582  00000-0 -41008-4 0  9999,2 55749  69.9994 164.0777 0003523 269.1370  90.9385 14.98325650 21102,6950.206,96.107,574.52,569.623,0.0
55749.0,STARLINK-5560,PAYLOAD,2023-07-16 06:49:30,14.98330682,0.0003421,69.9996,163.5733,267.5478,92.5289,4.5109e-05,4.45e-06,0.0,0 STARLINK-5560,1 55749U 23028J   23197.28437789  .00000445  00000-0  45109-4 0  9991,2 55749  69.9996 163.5733 0003421 267.5478  92.5289 14.98330682 21133,6950.191,96.107,574.433,569.678,0.0
55749.0,STARLINK-5560,PAYLOAD,2023-07-17 06:51:31,14.98329844,0.0003436,69.9996,161.0483,269.4907,90.5858,-4.9603e-05,-6.85e-06,0.0,0 STARLINK-5560,1 55749U 23028J   23198.28578071 -.00000685  00000-0 -49603-4 0  9993,2 55749  69.9996 161.0483 0003436 269.4907  90.5858 14.98329844 21286,6950.193,96.107,574.446,569.67,0.0
55749.0,STARLINK-5560,PAYLOAD,2023-07-18 06:53:32,14.98329929,0.0003487,69.9994,158.5235,270.7286,89.3473,7.3545e-05,7.85e-06,0.0,0 STARLINK-5560,1 55749U 23028J   23199.28717806  .00000785  00000-0  73545-4 0  9996,2 55749  69.9994 158.5235 0003487 270.7286  89.3473 14.98329929 21431,6950.193,96.107,574.482,569.635,0.0
55749.0,STARLINK-5560,PAYLOAD,2023-07-19 06:55:33,14.98330697,0.0003387,69.9996,155.9989,269.9042,90.1729,7.1774e-05,7.63e-06,0.0,0 STARLINK-5560,1 55749U 23028J   23200.28857743  .00000763  00000-0  71774-4 0  9992,2 55749  69.9996 155.9989 0003387 269.9042  90.1729 14.98330697 21583,6950.191,96.107,574.41,569.702,0.0
55749.0,STARLINK-5560,PAYLOAD,2023-07-20 22:58:54,14.98334742,0.0003514,69.9993,151.7906,266.3843,93.6914,1.3947e-05,7.3e-07,0.0,0 STARLINK-5560,1 55749U 23028J   23201.95757542  .00000073  00000-0  13947-4 0  9995,2 55749  69.9993 151.7906 0003514 266.3843  93.6914 14.98334742 21832,6950.178,96.107,574.486,569.601,0.0
55749.0,STARLINK-5560,PAYLOAD,2023-07-21 06:59:34,14.9834007,0.0003489,69.9993,150.9494,266.2795,93.7965,7.337e-05,7.83e-06,0.0,0 STARLINK-5560,1 55749U 23028J   23202.29136922  .00000783  00000-0  73370-4 0  9990,2 55749  69.9993 150.9494 0003489 266.2795  93.7965 14.98340070 21884,6950.162,96.106,574.452,569.602,0.0
55749.0,STARLINK-5560,PAYLOAD,2023-07-24 05:29:29,14.98327826,0.0003472,69.9991,143.5426,270.6556,89.4205,-5.0449e-06,-1.53e-06,0.0,0 STARLINK-5560,1 55749U 23028J   23205.22881772 -.00000153  00000-0 -50449-5 0  9992,2 55749  69.9991 143.5426 0003472 270.6556  89.4205 14.98327826 22324,6950.2,96.107,574.478,569.652,0.0
55749.0,STARLINK-5560,PAYLOAD,2023-07-25 05:31:30,14.98334816,0.0003411,69.9993,141.0178,264.4467,95.6303,1.5694e-05,9.4e-07,0.0,0 STARLINK-5560,1 55749U 23028J   23206.23021287  .00000094  00000-0  15694-4 0  9995,2 55749  69.9993 141.0178 0003411 264.4467  95.6303 14.98334816 22479,6950.178,96.107,574.414,569.672,0.0
